[{"OBJECT_NAME":"WORLDVIEW-2 (WV-2)","OBJECT_ID":"2009-055A","EPOCH":"2026-03-09T22:27:15.689664","MEAN_MOTION":14.37910721,"ECCENTRICITY":0.00050548,"INCLINATION":98.4692,"RA_OF_ASC_NODE":143.7977,"ARG_OF_PERICENTER":144.7175,"MEAN_ANOMALY":215.4347,"EPHEMERIS_TYPE":0,"CLASSIFICATION_TYPE":"U","NORAD_CAT_ID":35946,"ELEMENT_SET_NO":999,"REV_AT_EPOCH":86138,"BSTAR":7.9928144e-5,"MEAN_MOTION_DOT":1.98e-6,"MEAN_MOTION_DDOT":0},{"OBJECT_NAME":"CZ-6A DEB","OBJECT_ID":"2024-140CH","EPOCH":"2026-03-09T13:54:46.939680","MEAN_MOTION":14.35148866,"ECCENTRICITY":0.0126765,"INCLINATION":88.9661,"RA_OF_ASC_NODE":282.287,"ARG_OF_PERICENTER":202.1576,"MEAN_ANOMALY":157.4116,"EPHEMERIS_TYPE":0,"CLASSIFICATION_TYPE":"U","NORAD_CAT_ID":60680,"ELEMENT_SET_NO":999,"REV_AT_EPOCH":8279,"BSTAR":0.00024715,"MEAN_MOTION_DOT":7.88e-6,"MEAN_MOTION_DDOT":0}]
